{
  "type": "FeatureCollection",
  "features": [
    {
      "type": "Feature",
      "properties": {
        "norad_id": 38091,
        "name": "BEIDOU-2 G5 (C05)",
        "group": "gnss",
        "lat": -2.3352197664335157,
        "lon": -61.82821843680299,
        "alt_km": 35732.25619187557,
        "timestamp": "2025-12-23T09:49:07.324943+00:00",
        "meta_object_name": "BEIDOU-2 G5 (C05)",
        "meta_object_id": "2012-008A",
        "meta_epoch": "2025-12-19T16:03:31.750272",
        "meta_mean_motion": 1.00268606,
        "meta_eccentricity": 0.0012969,
        "meta_inclination": 3.1258,
        "meta_ra_of_asc_node": 70.6861,
        "meta_arg_of_pericenter": 231.3522,
        "meta_mean_anomaly": 86.1393,
        "meta_ephemeris_type": 0,
        "meta_classification_type": "U",
        "meta_norad_cat_id": 38091,
        "meta_element_set_no": 999,
        "meta_rev_at_epoch": 5056,
        "meta_bstar": 0,
        "meta_mean_motion_dot": 7.9e-07,
        "meta_mean_motion_ddot": 0,
        "tle_line1": "1 38091U 12008A   25353.66911748  .00000079  00000+0  00000+0 0  9996",
        "tle_line2": "2 38091   3.1258  70.6861 0012969 231.3522  86.1393  1.00268606 50560"
      },
      "geometry": {
        "type": "Point",
        "coordinates": [
          -61.82821843680299,
          -2.3352197664335157
        ]
      }
    },
    {
      "type": "Feature",
      "properties": {
        "norad_id": 38250,
        "name": "BEIDOU-2 M3 (C11)",
        "group": "gnss",
        "lat": -38.92409644438551,
        "lon": 163.89584715685945,
        "alt_km": 21486.124743834305,
        "timestamp": "2025-12-23T09:49:07.324956+00:00",
        "meta_object_name": "BEIDOU-2 M3 (C11)",
        "meta_object_id": "2012-018A",
        "meta_epoch": "2025-12-21T23:49:10.133760",
        "meta_mean_motion": 1.86230181,
        "meta_eccentricity": 0.00240993,
        "meta_inclination": 55.9124,
        "meta_ra_of_asc_node": 310.8468,
        "meta_arg_of_pericenter": 275.3188,
        "meta_mean_anomaly": 84.4018,
        "meta_ephemeris_type": 0,
        "meta_classification_type": "U",
        "meta_norad_cat_id": 38250,
        "meta_element_set_no": 999,
        "meta_rev_at_epoch": 9264,
        "meta_bstar": 0,
        "meta_mean_motion_dot": -6e-07,
        "meta_mean_motion_ddot": 0,
        "tle_line1": "1 38250U 12018A   25355.99247840 -.00000060  00000+0  00000+0 0  9998",
        "tle_line2": "2 38250  55.9124 310.8468 0024099 275.3188  84.4018  1.86230181 92640"
      },
      "geometry": {
        "type": "Point",
        "coordinates": [
          163.89584715685945,
          -38.92409644438551
        ]
      }
    },
    {
      "type": "Feature",
      "properties": {
        "norad_id": 38251,
        "name": "BEIDOU-2 M4 (C12)",
        "group": "gnss",
        "lat": -55.48307266138471,
        "lon": -130.87475814339425,
        "alt_km": 21491.60190166271,
        "timestamp": "2025-12-23T09:49:07.324967+00:00",
        "meta_object_name": "BEIDOU-2 M4 (C12)",
        "meta_object_id": "2012-018B",
        "meta_epoch": "2025-12-21T22:11:20.549760",
        "meta_mean_motion": 1.86229896,
        "meta_eccentricity": 0.00152556,
        "meta_inclination": 55.8135,
        "meta_ra_of_asc_node": 310.0771,
        "meta_arg_of_pericenter": 279.1681,
        "meta_mean_anomaly": 80.6551,
        "meta_ephemeris_type": 0,
        "meta_classification_type": "U",
        "meta_norad_cat_id": 38251,
        "meta_element_set_no": 999,
        "meta_rev_at_epoch": 9264,
        "meta_bstar": 0,
        "meta_mean_motion_dot": -6e-07,
        "meta_mean_motion_ddot": 0,
        "tle_line1": "1 38251U 12018B   25355.92454340 -.00000060  00000+0  00000+0 0  9997",
        "tle_line2": "2 38251  55.8135 310.0771 0015255 279.1681  80.6551  1.86229896 92646"
      },
      "geometry": {
        "type": "Point",
        "coordinates": [
          -130.87475814339425,
          -55.48307266138471
        ]
      }
    },
    {
      "type": "Feature",
      "properties": {
        "norad_id": 38652,
        "name": "SES-5 (EGNOS/PRN 136)",
        "group": "gnss",
        "lat": -0.06518093743544455,
        "lon": -115.55711995436235,
        "alt_km": 35779.49309263564,
        "timestamp": "2025-12-23T09:49:07.324985+00:00",
        "meta_object_name": "SES-5 (EGNOS/PRN 136)",
        "meta_object_id": "2012-036A",
        "meta_epoch": "2025-12-22T03:54:38.524896",
        "meta_mean_motion": 1.00271214,
        "meta_eccentricity": 0.00018162,
        "meta_inclination": 0.059,
        "meta_ra_of_asc_node": 304.6524,
        "meta_arg_of_pericenter": 329.614,
        "meta_mean_anomaly": 240.347,
        "meta_ephemeris_type": 0,
        "meta_classification_type": "U",
        "meta_norad_cat_id": 38652,
        "meta_element_set_no": 999,
        "meta_rev_at_epoch": 4268,
        "meta_bstar": 0,
        "meta_mean_motion_dot": 5.6e-07,
        "meta_mean_motion_ddot": 0,
        "tle_line1": "1 38652U 12036A   25356.16294589  .00000056  00000+0  00000+0 0  9990",
        "tle_line2": "2 38652   0.0590 304.6524 0001816 329.6140 240.3470  1.00271214 42683"
      },
      "geometry": {
        "type": "Point",
        "coordinates": [
          -115.55711995436235,
          -0.06518093743544455
        ]
      }
    },
    {
      "type": "Feature",
      "properties": {
        "norad_id": 38775,
        "name": "BEIDOU-2 M6 (C14)",
        "group": "gnss",
        "lat": 51.84298578771238,
        "lon": -168.98372277725164,
        "alt_km": 21540.675891099017,
        "timestamp": "2025-12-23T09:49:07.325006+00:00",
        "meta_object_name": "BEIDOU-2 M6 (C14)",
        "meta_object_id": "2012-050B",
        "meta_epoch": "2025-12-22T04:08:12.924384",
        "meta_mean_motion": 1.86230887,
        "meta_eccentricity": 0.0011428,
        "meta_inclination": 56.3862,
        "meta_ra_of_asc_node": 68.7545,
        "meta_arg_of_pericenter": 343.2335,
        "meta_mean_anomaly": 16.7787,
        "meta_ephemeris_type": 0,
        "meta_classification_type": "U",
        "meta_norad_cat_id": 38775,
        "meta_element_set_no": 999,
        "meta_rev_at_epoch": 9001,
        "meta_bstar": 0,
        "meta_mean_motion_dot": -3e-07,
        "meta_mean_motion_ddot": 0,
        "tle_line1": "1 38775U 12050B   25356.17237181 -.00000030  00000+0  00000+0 0  9991",
        "tle_line2": "2 38775  56.3862  68.7545 0011428 343.2335  16.7787  1.86230887 90015"
      },
      "geometry": {
        "type": "Point",
        "coordinates": [
          -168.98372277725164,
          51.84298578771238
        ]
      }
    },
    {
      "type": "Feature",
      "properties": {
        "norad_id": 38779,
        "name": "GSAT-10 (GAGAN/PRN 128)",
        "group": "gnss",
        "lat": 0.03475413188389267,
        "lon": -37.50295796854532,
        "alt_km": 35795.35459392558,
        "timestamp": "2025-12-23T09:49:07.325024+00:00",
        "meta_object_name": "GSAT-10 (GAGAN/PRN 128)",
        "meta_object_id": "2012-051B",
        "meta_epoch": "2025-12-22T20:24:27.813024",
        "meta_mean_motion": 1.00271679,
        "meta_eccentricity": 0.00023196,
        "meta_inclination": 0.0677,
        "meta_ra_of_asc_node": 263.3733,
        "meta_arg_of_pericenter": 219.5003,
        "meta_mean_anomaly": 357.9241,
        "meta_ephemeris_type": 0,
        "meta_classification_type": "U",
        "meta_norad_cat_id": 38779,
        "meta_element_set_no": 999,
        "meta_rev_at_epoch": 4833,
        "meta_bstar": 0,
        "meta_mean_motion_dot": -1.44e-06,
        "meta_mean_motion_ddot": 0,
        "tle_line1": "1 38779U 12051B   25356.85032191 -.00000144  00000+0  00000+0 0  9991",
        "tle_line2": "2 38779   0.0677 263.3733 0002319 219.5003 357.9241  1.00271679 48330"
      },
      "geometry": {
        "type": "Point",
        "coordinates": [
          -37.50295796854532,
          0.03475413188389267
        ]
      }
    },
    {
      "type": "Feature",
      "properties": {
        "norad_id": 38833,
        "name": "GPS BIIF-3  (PRN 24)",
        "group": "gnss",
        "lat": 46.98233216637022,
        "lon": -156.85919124624476,
        "alt_km": 19709.40003036758,
        "timestamp": "2025-12-23T09:49:07.325036+00:00",
        "meta_object_name": "GPS BIIF-3  (PRN 24)",
        "meta_object_id": "2012-053A",
        "meta_epoch": "2025-12-22T07:46:34.286880",
        "meta_mean_motion": 2.0056507,
        "meta_eccentricity": 0.0176029,
        "meta_inclination": 53.5595,
        "meta_ra_of_asc_node": 150.8462,
        "meta_arg_of_pericenter": 64.1364,
        "meta_mean_anomaly": 297.6424,
        "meta_ephemeris_type": 0,
        "meta_classification_type": "U",
        "meta_norad_cat_id": 38833,
        "meta_element_set_no": 999,
        "meta_rev_at_epoch": 9589,
        "meta_bstar": 0,
        "meta_mean_motion_dot": 6.6e-07,
        "meta_mean_motion_ddot": 0,
        "tle_line1": "1 38833U 12053A   25356.32400795  .00000066  00000+0  00000+0 0  9997",
        "tle_line2": "2 38833  53.5595 150.8462 0176029  64.1364 297.6424  2.00565070 95894"
      },
      "geometry": {
        "type": "Point",
        "coordinates": [
          -156.85919124624476,
          46.98233216637022
        ]
      }
    }
  ]
}